NORAD_CAT_ID,OBJECT_NAME,OBJECT_TYPE,EPOCH,MEAN_MOTION,ECCENTRICITY,INCLINATION,RA_OF_ASC_NODE,ARG_OF_PERICENTER,MEAN_ANOMALY,BSTAR,MEAN_MOTION_DOT,MEAN_MOTION_DDOT,TLE_LINE0,TLE_LINE1,TLE_LINE2,SEMIMAJOR_AXIS,PERIOD,APOGEE,PERIGEE,DECAYED
53890.0,STARLINK-5050,PAYLOAD,2023-09-11 04:31:48,15.08841539,0.0001252,53.2181,56.3012,88.7944,271.3191,5.3085e-05,5.57e-06,0.0,0 STARLINK-5050,1 53890U 22119E   23254.18875442  .00000557  00000-0  53085-4 0  9997,2 53890  53.2181  56.3012 0001252  88.7944 271.3191 15.08841539 54304,6917.876,95.437,540.607,538.875,0.0
53890.0,STARLINK-5050,PAYLOAD,2023-09-11 14:04:07,15.08838675,0.0001268,53.2181,54.5168,89.5111,270.6026,7.8919e-05,9.68e-06,0.0,0 STARLINK-5050,1 53890U 22119E   23254.58619600  .00000968  00000-0  78919-4 0  9992,2 53890  53.2181  54.5168 0001268  89.5111 270.6026 15.08838675 54786,6917.884,95.438,540.627,538.872,0.0
53890.0,STARLINK-5050,PAYLOAD,2023-09-12 10:44:08,15.08839488,0.0001249,53.219,50.6517,86.5892,273.5243,6.7195e-05,7.82e-06,0.0,0 STARLINK-5050,1 53890U 22119E   23255.44731559  .00000782  00000-0  67195-4 0  9994,2 53890  53.2190  50.6517 0001249  86.5892 273.5243 15.08839488 54497,6917.882,95.438,540.611,538.883,0.0
53890.0,STARLINK-5050,PAYLOAD,2023-09-12 13:54:54,15.08841857,0.0001298,53.2186,50.0571,85.9173,274.1967,5.3355e-05,5.61e-06,0.0,0 STARLINK-5050,1 53890U 22119E   23255.57979433  .00000561  00000-0  53355-4 0  9991,2 53890  53.2186  50.0571 0001298  85.9173 274.1967 15.08841857 54937,6917.875,95.437,540.638,538.842,0.0
53890.0,STARLINK-5050,PAYLOAD,2023-09-12 17:05:40,15.08845949,0.0001332,53.219,49.4622,91.5295,268.5849,5.5777e-05,6e-06,0.0,0 STARLINK-5050,1 53890U 22119E   23255.71227146  .00000600  00000-0  55777-4 0  9998,2 53890  53.2190  49.4622 0001332  91.5295 268.5849 15.08845949 54952,6917.862,95.437,540.649,538.806,0.0
53890.0,STARLINK-5050,PAYLOAD,2023-09-13 13:45:40,15.08848108,0.0001246,53.2178,45.5948,85.6621,274.4513,0.00014239,1.979e-05,0.0,0 STARLINK-5050,1 53890U 22119E   23256.57338621  .00001979  00000-0  14239-3 0  9991,2 53890  53.2178  45.5948 0001246  85.6621 274.4513 15.08848108 55086,6917.856,95.437,540.583,538.859,0.0
53890.0,STARLINK-5050,PAYLOAD,2023-09-13 16:56:26,15.08852912,0.0001297,53.2186,45.0011,85.3469,274.7672,0.00018036,2.585e-05,0.0,0 STARLINK-5050,1 53890U 22119E   23256.70586252  .00002585  00000-0  18036-3 0  9994,2 53890  53.2186  45.0011 0001297  85.3469 274.7672 15.08852912 54686,6917.841,95.437,540.603,538.809,0.0
53890.0,STARLINK-5050,PAYLOAD,2023-09-14 10:25:42,15.08832371,9.55e-05,53.2187,41.7321,79.923,280.1869,-2.5712e-05,-6.97e-06,0.0,0 STARLINK-5050,1 53890U 22119E   23257.43452386 -.00000697  00000-0 -25712-4 0  9999,2 53890  53.2187  41.7321 0000955  79.9230 280.1869 15.08832371 54797,6917.904,95.438,540.429,539.108,0.0
53890.0,STARLINK-5050,PAYLOAD,2023-09-14 13:36:28,15.08828543,0.0001265,53.2179,41.1358,101.6832,258.4302,-0.00015793,-2.8e-05,0.0,0 STARLINK-5050,1 53890U 22119E   23257.56700053 -.00002800  00000-0 -15793-3 0  9995,2 53890  53.2179  41.1358 0001265 101.6832 258.4302 15.08828543 55234,6917.915,95.438,540.656,538.905,0.0
53890.0,STARLINK-5050,PAYLOAD,2023-09-14 19:58:01,15.08829156,0.0001233,53.2177,39.9456,99.4596,260.6536,-0.00012798,-2.323e-05,0.0,0 STARLINK-5050,1 53890U 22119E   23257.83196166 -.00002323  00000-0 -12798-3 0  9991,2 53890  53.2177  39.9456 0001233  99.4596 260.6536 15.08829156 55271,6917.914,95.438,540.632,538.926,0.0
53890.0,STARLINK-5050,PAYLOAD,2023-09-15 10:16:29,15.08839184,0.0001136,53.2177,37.2687,99.788,260.324,-3.6933e-06,-3.47e-06,0.0,0 STARLINK-5050,1 53890U 22119E   23258.42811953 -.00000347  00000-0 -36933-5 0  9998,2 53890  53.2177  37.2687 0001136  99.7880 260.3240 15.08839184 54943,6917.883,95.438,540.534,538.962,0.0
53890.0,STARLINK-5050,PAYLOAD,2023-09-15 13:27:15,15.08842152,0.000115,53.2179,36.6741,101.2428,258.8694,5.2927e-05,5.55e-06,0.0,0 STARLINK-5050,1 53890U 22119E   23258.56059819  .00000555  00000-0  52927-4 0  9997,2 53890  53.2179  36.6741 0001150 101.2428 258.8694 15.08842152 55385,6917.874,95.437,540.534,538.943,0.0
53890.0,STARLINK-5050,PAYLOAD,2023-09-15 18:13:25,15.08847696,0.0001175,53.2178,35.7825,101.7571,258.3553,0.00032619,4.908e-05,0.0,0 STARLINK-5050,1 53890U 22119E   23258.75931760  .00004908  00000-0  32619-3 0  9993,2 53890  53.2178  35.7825 0001175 101.7571 258.3553 15.08847696 54991,6917.857,95.437,540.535,538.909,0.0
53890.0,STARLINK-5050,PAYLOAD,2023-09-16 10:07:16,15.08841715,0.0001377,53.2189,32.8115,95.1298,264.9852,2.4314e-05,9.9e-07,0.0,0 STARLINK-5050,1 53890U 22119E   23259.42172228  .00000099  00000-0  24314-4 0  9995,2 53890  53.2189  32.8115 0001377  95.1298 264.9852 15.08841715 55092,6917.875,95.437,540.693,538.788,0.0
53890.0,STARLINK-5050,PAYLOAD,2023-09-16 13:18:03,15.0883437,0.0001525,53.2199,32.2155,94.8278,265.2888,6.424e-05,7.34e-06,0.0,0 STARLINK-5050,1 53890U 22119E   23259.55420787  .00000734  00000-0  64240-4 0  9993,2 53890  53.2199  32.2155 0001525  94.8278 265.2888 15.08834370 55531,6917.898,95.438,540.818,538.708,0.0
53890.0,STARLINK-5050,PAYLOAD,2023-09-16 16:28:49,15.08835684,0.0001155,53.2184,31.6199,91.8066,268.3058,0.00019629,2.837e-05,0.0,0 STARLINK-5050,1 53890U 22119E   23259.68668677  .00002837  00000-0  19629-3 0  9995,2 53890  53.2184  31.6199 0001155  91.8066 268.3058 15.08835684 55135,6917.894,95.438,540.558,538.96,0.0
53890.0,STARLINK-5050,PAYLOAD,2023-09-17 08:22:40,15.08847538,0.0001179,53.2184,28.6456,87.7244,272.3883,0.0002435,3.59e-05,0.0,0 STARLINK-5050,1 53890U 22119E   23260.34908292  .00003590  00000-0  24350-3 0  9994,2 53890  53.2184  28.6456 0001179  87.7244 272.3883 15.08847538 55654,6917.857,95.437,540.538,538.907,0.0
53890.0,STARLINK-5050,PAYLOAD,2023-09-17 17:54:58,15.08868842,0.0001092,53.2176,26.8621,81.8719,278.2397,0.00077097,0.00012013,0.0,0 STARLINK-5050,1 53890U 22119E   23260.74651441  .00012013  00000-0  77097-3 0  9995,2 53890  53.2176  26.8621 0001092  81.8719 278.2397 15.08868842 55291,6917.792,95.436,540.413,538.902,0.0
53890.0,STARLINK-5050,PAYLOAD,2023-09-18 01:51:54,15.08856052,9.59e-05,53.2184,25.3745,97.53,262.5801,0.00044602,6.821e-05,0.0,0 STARLINK-5050,1 53890U 22119E   23261.07771646  .00006821  00000-0  44602-3 0  9998,2 53890  53.2184  25.3745 0000959  97.5300 262.5801 15.08856052 55344,6917.831,95.437,540.36,539.033,0.0
53890.0,STARLINK-5050,PAYLOAD,2023-09-18 12:59:36,15.08849133,0.0001907,53.2182,23.2934,93.6687,266.4523,0.00017974,2.574e-05,0.0,0 STARLINK-5050,1 53890U 22119E   23261.54139924  .00002574  00000-0  17974-3 0  9990,2 53890  53.2182  23.2934 0001907  93.6687 266.4523 15.08849133 55838,6917.852,95.437,541.037,538.398,0.0
53890.0,STARLINK-5050,PAYLOAD,2023-09-18 17:45:46,15.08852602,0.0001486,53.2186,22.4007,87.6481,272.4681,0.00026882,3.994e-05,0.0,0 STARLINK-5050,1 53890U 22119E   23261.74011686  .00003994  00000-0  26882-3 0  9991,2 53890  53.2186  22.4007 0001486  87.6481 272.4681 15.08852602 55445,6917.842,95.437,540.735,538.679,0.0
53890.0,STARLINK-5050,PAYLOAD,2023-09-19 14:25:46,15.08853746,0.0001494,53.2186,18.5358,97.762,262.3542,0.00032195,4.841e-05,0.0,0 STARLINK-5050,1 53890U 22119E   23262.60123397  .00004841  00000-0  32195-3 0  9996,2 53890  53.2186  18.5358 0001494  97.7620 262.3542 15.08853746 55574,6917.838,95.437,540.737,538.67,0.0
53890.0,STARLINK-5050,PAYLOAD,2023-09-20 07:55:02,15.0883016,0.0001829,53.2188,15.2617,125.6731,234.4432,-4.9495e-05,-1.076e-05,0.0,0 STARLINK-5050,1 53890U 22119E   23263.32988489 -.00001076  00000-0 -49495-4 0  9998,2 53890  53.2188  15.2617 0001829 125.6731 234.4432 15.08830160 55689,6917.91,95.438,541.041,538.51,0.0
53890.0,STARLINK-5050,PAYLOAD,2023-09-20 14:16:35,15.08820528,0.0001516,53.2185,14.0744,104.0655,256.0505,-0.00014432,-2.583e-05,0.0,0 STARLINK-5050,1 53890U 22119E   23263.59485206 -.00002583  00000-0 -14432-3 0  9992,2 53890  53.2185  14.0744 0001516 104.0655 256.0505 15.08820528 56143,6917.94,95.439,540.854,538.756,0.0
53890.0,STARLINK-5050,PAYLOAD,2023-09-21 10:56:36,15.08848074,0.00013,53.2187,10.211,107.9189,252.1945,0.0010087,0.00015805,0.0,0 STARLINK-5050,1 53890U 22119E   23264.45597479  .00015805  00000-0  10087-2 0  9994,2 53890  53.2187  10.2110 0001300 107.9189 252.1945 15.08848074 55853,6917.856,95.437,540.62,538.821,0.0
53890.0,STARLINK-5050,PAYLOAD,2023-09-21 12:31:59,15.08855858,0.0001307,53.2188,9.9139,107.1236,252.9899,0.0014198,0.0002239,0.0,0 STARLINK-5050,1 53890U 22119E   23264.52221487  .00022390  00000-0  14198-2 0  9999,2 53890  53.2188   9.9139 0001307 107.1236 252.9899 15.08855858 56284,6917.832,95.437,540.601,538.793,0.0
53890.0,STARLINK-5050,PAYLOAD,2023-09-21 14:07:22,15.08864551,0.0001306,53.2186,9.6171,104.4921,255.6216,0.0016373,0.00025883,0.0,0 STARLINK-5050,1 53890U 22119E   23264.58845352  .00025883  00000-0  16373-2 0  9995,2 53890  53.2186   9.6171 0001306 104.4921 255.6216 15.08864551 55872,6917.805,95.436,540.574,538.767,0.0
53890.0,STARLINK-5050,PAYLOAD,2023-09-21 23:39:40,15.08864101,0.0001527,53.2185,7.8315,87.8685,272.2482,0.0010801,0.00016955,0.0,0 STARLINK-5050,1 53890U 22119E   23264.98589091  .00016955  00000-0  10801-2 0  9994,2 53890  53.2185   7.8315 0001527  87.8685 272.2482 15.08864101 55935,6917.807,95.436,540.728,538.615,0.0
53890.0,STARLINK-5050,PAYLOAD,2023-09-22 10:47:22,15.08851523,0.0001621,53.2197,5.7537,113.0055,247.1109,-0.00012105,-2.215e-05,0.0,0 STARLINK-5050,1 53890U 22119E   23265.44956772 -.00002215  00000-0 -12105-3 0  9996,2 53890  53.2197   5.7537 0001621 113.0055 247.1109 15.08851523 56009,6917.845,95.437,540.832,538.589,0.0
53890.0,STARLINK-5050,PAYLOAD,2023-09-22 12:22:45,15.08848106,0.0001604,53.2197,5.4563,113.2829,246.8332,0.00024247,3.574e-05,0.0,0 STARLINK-5050,1 53890U 22119E   23265.51581013  .00003574  00000-0  24247-3 0  9993,2 53890  53.2197   5.4563 0001604 113.2829 246.8332 15.08848106 56431,6917.856,95.437,540.83,538.611,0.0
